[{"OBJECT_NAME":"STARLINK-5746","OBJECT_ID":"2023-083BC","EPOCH":"2026-03-18T14:00:01.000224","MEAN_MOTION":15.14958911,"ECCENTRICITY":9.013e-5,"INCLINATION":43.0012,"RA_OF_ASC_NODE":19.6824,"ARG_OF_PERICENTER":321.0652,"MEAN_ANOMALY":168.074,"EPHEMERIS_TYPE":0,"CLASSIFICATION_TYPE":"U","NORAD_CAT_ID":56926,"ELEMENT_SET_NO":999,"REV_AT_EPOCH":567,"BSTAR":0.00071951846,"MEAN_MOTION_DOT":0.00013458,"MEAN_MOTION_DDOT":0},{"OBJECT_NAME":"STARLINK-5808","OBJECT_ID":"2023-083BD","EPOCH":"2026-03-18T14:00:01.000224","MEAN_MOTION":15.24210567,"ECCENTRICITY":7.726e-5,"INCLINATION":42.9986,"RA_OF_ASC_NODE":289.2625,"ARG_OF_PERICENTER":239.6549,"MEAN_ANOMALY":300.97,"EPHEMERIS_TYPE":0,"CLASSIFICATION_TYPE":"U","NORAD_CAT_ID":56927,"ELEMENT_SET_NO":999,"REV_AT_EPOCH":578,"BSTAR":0.0034772994,"MEAN_MOTION_DOT":0.00087212,"MEAN_MOTION_DDOT":0},{"OBJECT_NAME":"STARLINK-5850","OBJECT_ID":"2023-088B","EPOCH":"2026-03-18T14:00:01.000224","MEAN_MOTION":15.11091081,"ECCENTRICITY":0.00018533,"INCLINATION":43.0003,"RA_OF_ASC_NODE":59.3151,"ARG_OF_PERICENTER":269.789,"MEAN_ANOMALY":163.3018,"EPHEMERIS_TYPE":0,"CLASSIFICATION_TYPE":"U","NORAD_CAT_ID":57049,"ELEMENT_SET_NO":999,"REV_AT_EPOCH":577,"BSTAR":0.00078725039,"MEAN_MOTION_DOT":0.00013216,"MEAN_MOTION_DDOT":0},{"OBJECT_NAME":"STARLINK-5845","OBJECT_ID":"2023-088C","EPOCH":"2026-03-18T14:00:01.000224","MEAN_MOTION":15.11102813,"ECCENTRICITY":0.0001093,"INCLINATION":43.0004,"RA_OF_ASC_NODE":59.1648,"ARG_OF_PERICENTER":316.8712,"MEAN_ANOMALY":175.8532,"EPHEMERIS_TYPE":0,"CLASSIFICATION_TYPE":"U","NORAD_CAT_ID":57050,"ELEMENT_SET_NO":999,"REV_AT_EPOCH":578,"BSTAR":0.00071238844,"MEAN_MOTION_DOT":0.0001194,"MEAN_MOTION_DDOT":0},{"OBJECT_NAME":"STARLINK-5839","OBJECT_ID":"2023-088D","EPOCH":"2026-03-18T14:00:01.000224","MEAN_MOTION":15.12862735,"ECCENTRICITY":0.00011577,"INCLINATION":43.0012,"RA_OF_ASC_NODE":58.9948,"ARG_OF_PERICENTER":299.4243,"MEAN_ANOMALY":267.145,"EPHEMERIS_TYPE":0,"CLASSIFICATION_TYPE":"U","NORAD_CAT_ID":57051,"ELEMENT_SET_NO":999,"REV_AT_EPOCH":573,"BSTAR":0.00064734717,"MEAN_MOTION_DOT":0.0001138,"MEAN_MOTION_DDOT":0},{"OBJECT_NAME":"STARLINK-5860","OBJECT_ID":"2023-088E","EPOCH":"2026-03-18T14:00:01.000224","MEAN_MOTION":15.13024198,"ECCENTRICITY":0.00011391,"INCLINATION":43.0009,"RA_OF_ASC_NODE":59.012,"ARG_OF_PERICENTER":298.8075,"MEAN_ANOMALY":261.9295,"EPHEMERIS_TYPE":0,"CLASSIFICATION_TYPE":"U","NORAD_CAT_ID":57052,"ELEMENT_SET_NO":999,"REV_AT_EPOCH":568,"BSTAR":0.00064774766,"MEAN_MOTION_DOT":0.0001144,"MEAN_MOTION_DDOT":0},{"OBJECT_NAME":"STARLINK-5865","OBJECT_ID":"2023-088F","EPOCH":"2026-03-18T14:00:01.000224","MEAN_MOTION":15.09499261,"ECCENTRICITY":0.00014329,"INCLINATION":43.0018,"RA_OF_ASC_NODE":59.041,"ARG_OF_PERICENTER":322.9095,"MEAN_ANOMALY":224.2666,"EPHEMERIS_TYPE":0,"CLASSIFICATION_TYPE":"U","NORAD_CAT_ID":57053,"ELEMENT_SET_NO":999,"REV_AT_EPOCH":578,"BSTAR":0.0007107773,"MEAN_MOTION_DOT":0.00011389,"MEAN_MOTION_DDOT":0},{"OBJECT_NAME":"STARLINK-5881","OBJECT_ID":"2023-088G","EPOCH":"2026-03-18T14:00:01.000224","MEAN_MOTION":15.09545671,"ECCENTRICITY":8.016e-5,"INCLINATION":43.0002,"RA_OF_ASC_NODE":58.9027,"ARG_OF_PERICENTER":312.848,"MEAN_ANOMALY":292.9515,"EPHEMERIS_TYPE":0,"CLASSIFICATION_TYPE":"U","NORAD_CAT_ID":57054,"ELEMENT_SET_NO":999,"REV_AT_EPOCH":578,"BSTAR":0.00049399527,"MEAN_MOTION_DOT":7.855e-5,"MEAN_MOTION_DDOT":0},{"OBJECT_NAME":"STARLINK-6237","OBJECT_ID":"2023-088H","EPOCH":"2026-03-18T14:00:01.000224","MEAN_MOTION":15.11116594,"ECCENTRICITY":0.00012193,"INCLINATION":43.0012,"RA_OF_ASC_NODE":59.0253,"ARG_OF_PERICENTER":318.0957,"MEAN_ANOMALY":236.2801,"EPHEMERIS_TYPE":0,"CLASSIFICATION_TYPE":"U","NORAD_CAT_ID":57055,"ELEMENT_SET_NO":999,"REV_AT_EPOCH":562,"BSTAR":0.00063691941,"MEAN_MOTION_DOT":0.00010654,"MEAN_MOTION_DDOT":0},{"OBJECT_NAME":"STARLINK-6353","OBJECT_ID":"2023-088J","EPOCH":"2026-03-18T14:00:01.000224","MEAN_MOTION":15.11484632,"ECCENTRICITY":0.00016171,"INCLINATION":43.0004,"RA_OF_ASC_NODE":58.7702,"ARG_OF_PERICENTER":275.1813,"MEAN_ANOMALY":26.2252,"EPHEMERIS_TYPE":0,"CLASSIFICATION_TYPE":"U","NORAD_CAT_ID":57056,"ELEMENT_SET_NO":999,"REV_AT_EPOCH":578,"BSTAR":0.00030199008,"MEAN_MOTION_DOT":4.983e-5,"MEAN_MOTION_DDOT":0},{"OBJECT_NAME":"STARLINK-6223","OBJECT_ID":"2023-088K","EPOCH":"2026-03-18T14:00:01.000224","MEAN_MOTION":15.09682,"ECCENTRICITY":8.513e-5,"INCLINATION":43.0007,"RA_OF_ASC_NODE":58.8236,"ARG_OF_PERICENTER":249.3305,"MEAN_ANOMALY":19.8685,"EPHEMERIS_TYPE":0,"CLASSIFICATION_TYPE":"U","NORAD_CAT_ID":57057,"ELEMENT_SET_NO":999,"REV_AT_EPOCH":578,"BSTAR":0.00036141202,"MEAN_MOTION_DOT":5.709e-5,"MEAN_MOTION_DDOT":0},{"OBJECT_NAME":"STARLINK-6217","OBJECT_ID":"2023-088L","EPOCH":"2026-03-18T14:00:01.000224","MEAN_MOTION":15.12340548,"ECCENTRICITY":0.00012951,"INCLINATION":43.0005,"RA_OF_ASC_NODE":58.7351,"ARG_OF_PERICENTER":257.3566,"MEAN_ANOMALY":59.5305,"EPHEMERIS_TYPE":0,"CLASSIFICATION_TYPE":"U","NORAD_CAT_ID":57058,"ELEMENT_SET_NO":999,"REV_AT_EPOCH":568,"BSTAR":0.00038359542,"MEAN_MOTION_DOT":6.549e-5,"MEAN_MOTION_DDOT":0},{"OBJECT_NAME":"STARLINK-6211","OBJECT_ID":"2023-088M","EPOCH":"2026-03-18T14:00:01.000224","MEAN_MOTION":15.13350857,"ECCENTRICITY":0.00010921,"INCLINATION":43.001,"RA_OF_ASC_NODE":59.1876,"ARG_OF_PERICENTER":342.0328,"MEAN_ANOMALY":139.88,"EPHEMERIS_TYPE":0,"CLASSIFICATION_TYPE":"U","NORAD_CAT_ID":57059,"ELEMENT_SET_NO":999,"REV_AT_EPOCH":578,"BSTAR":0.0028318366,"MEAN_MOTION_DOT":0.00051532,"MEAN_MOTION_DDOT":0},{"OBJECT_NAME":"STARLINK-6227","OBJECT_ID":"2023-088N","EPOCH":"2026-03-18T14:00:01.000224","MEAN_MOTION":15.08667469,"ECCENTRICITY":0.0002697,"INCLINATION":43.0002,"RA_OF_ASC_NODE":59.3656,"ARG_OF_PERICENTER":251.4044,"MEAN_ANOMALY":155.1386,"EPHEMERIS_TYPE":0,"CLASSIFICATION_TYPE":"U","NORAD_CAT_ID":57060,"ELEMENT_SET_NO":999,"REV_AT_EPOCH":577,"BSTAR":0.00050659414,"MEAN_MOTION_DOT":7.866e-5,"MEAN_MOTION_DDOT":0},{"OBJECT_NAME":"STARLINK-5869","OBJECT_ID":"2023-088P","EPOCH":"2026-03-18T06:20:01.592448","MEAN_MOTION":15.05343497,"ECCENTRICITY":0.0001728,"INCLINATION":43.0012,"RA_OF_ASC_NODE":60.5263,"ARG_OF_PERICENTER":265.0323,"MEAN_ANOMALY":95.0323,"EPHEMERIS_TYPE":0,"CLASSIFICATION_TYPE":"U","NORAD_CAT_ID":57061,"ELEMENT_SET_NO":999,"REV_AT_EPOCH":15068,"BSTAR":-9.7641e-7,"MEAN_MOTION_DOT":-2.23e-6,"MEAN_MOTION_DDOT":0},{"OBJECT_NAME":"STARLINK-5536","OBJECT_ID":"2023-088Q","EPOCH":"2026-03-18T14:00:01.000224","MEAN_MOTION":15.1689881,"ECCENTRICITY":6.056e-5,"INCLINATION":43.0006,"RA_OF_ASC_NODE":45.1119,"ARG_OF_PERICENTER":294.8204,"MEAN_ANOMALY":273.4821,"EPHEMERIS_TYPE":0,"CLASSIFICATION_TYPE":"U","NORAD_CAT_ID":57062,"ELEMENT_SET_NO":999,"REV_AT_EPOCH":567,"BSTAR":2.8897664e-5,"MEAN_MOTION_DOT":3.46e-6,"MEAN_MOTION_DDOT":0},{"OBJECT_NAME":"STARLINK-5832","OBJECT_ID":"2023-088R","EPOCH":"2026-03-18T14:00:01.000224","MEAN_MOTION":15.09675295,"ECCENTRICITY":0.00017007,"INCLINATION":43.0012,"RA_OF_ASC_NODE":58.6137,"ARG_OF_PERICENTER":235.8694,"MEAN_ANOMALY":128.3626,"EPHEMERIS_TYPE":0,"CLASSIFICATION_TYPE":"U","NORAD_CAT_ID":57063,"ELEMENT_SET_NO":999,"REV_AT_EPOCH":578,"BSTAR":0.00025210959,"MEAN_MOTION_DOT":3.914e-5,"MEAN_MOTION_DDOT":0},{"OBJECT_NAME":"STARLINK-5822","OBJECT_ID":"2023-088S","EPOCH":"2026-03-18T14:00:01.000224","MEAN_MOTION":15.10889778,"ECCENTRICITY":0.00012127,"INCLINATION":43.001,"RA_OF_ASC_NODE":59.0405,"ARG_OF_PERICENTER":298.379,"MEAN_ANOMALY":244.9663,"EPHEMERIS_TYPE":0,"CLASSIFICATION_TYPE":"U","NORAD_CAT_ID":57064,"ELEMENT_SET_NO":999,"REV_AT_EPOCH":567,"BSTAR":0.00071811846,"MEAN_MOTION_DOT":0.00011966,"MEAN_MOTION_DDOT":0},{"OBJECT_NAME":"STARLINK-5830","OBJECT_ID":"2023-088T","EPOCH":"2026-03-17T15:45:37.066464","MEAN_MOTION":15.03124639,"ECCENTRICITY":9.16e-5,"INCLINATION":43.0021,"RA_OF_ASC_NODE":64.5523,"ARG_OF_PERICENTER":254.3071,"MEAN_ANOMALY":105.767,"EPHEMERIS_TYPE":0,"CLASSIFICATION_TYPE":"U","NORAD_CAT_ID":57065,"ELEMENT_SET_NO":999,"REV_AT_EPOCH":15058,"BSTAR":0.0027171323,"MEAN_MOTION_DOT":0.00037276,"MEAN_MOTION_DDOT":0},{"OBJECT_NAME":"STARLINK-5827","OBJECT_ID":"2023-088U","EPOCH":"2026-03-18T14:00:01.000224","MEAN_MOTION":15.08709109,"ECCENTRICITY":0.00012957,"INCLINATION":43.0006,"RA_OF_ASC_NODE":58.7321,"ARG_OF_PERICENTER":246.3198,"MEAN_ANOMALY":69.0404,"EPHEMERIS_TYPE":0,"CLASSIFICATION_TYPE":"U","NORAD_CAT_ID":57066,"ELEMENT_SET_NO":999,"REV_AT_EPOCH":567,"BSTAR":0.00030968766,"MEAN_MOTION_DOT":4.728e-5,"MEAN_MOTION_DDOT":0},{"OBJECT_NAME":"STARLINK-5824","OBJECT_ID":"2023-088V","EPOCH":"2026-03-18T14:00:01.000224","MEAN_MOTION":15.10190582,"ECCENTRICITY":0.00011977,"INCLINATION":43.001,"RA_OF_ASC_NODE":59.0145,"ARG_OF_PERICENTER":312.8648,"MEAN_ANOMALY":238.9508,"EPHEMERIS_TYPE":0,"CLASSIFICATION_TYPE":"U","NORAD_CAT_ID":57067,"ELEMENT_SET_NO":999,"REV_AT_EPOCH":572,"BSTAR":0.00067301716,"MEAN_MOTION_DOT":0.00010982,"MEAN_MOTION_DDOT":0},{"OBJECT_NAME":"STARLINK-5844","OBJECT_ID":"2023-088W","EPOCH":"2026-03-18T14:00:01.000224","MEAN_MOTION":15.06994246,"ECCENTRICITY":0.00011428,"INCLINATION":43.0007,"RA_OF_ASC_NODE":58.6984,"ARG_OF_PERICENTER":218.7671,"MEAN_ANOMALY":108.9281,"EPHEMERIS_TYPE":0,"CLASSIFICATION_TYPE":"U","NORAD_CAT_ID":57068,"ELEMENT_SET_NO":999,"REV_AT_EPOCH":578,"BSTAR":5.0159139e-5,"MEAN_MOTION_DOT":5.51e-6,"MEAN_MOTION_DDOT":0},{"OBJECT_NAME":"STARLINK-5821","OBJECT_ID":"2023-088X","EPOCH":"2026-03-18T14:00:01.000224","MEAN_MOTION":15.16776,"ECCENTRICITY":0.00020227,"INCLINATION":43.0017,"RA_OF_ASC_NODE":45.6818,"ARG_OF_PERICENTER":263.4776,"MEAN_ANOMALY":73.9056,"EPHEMERIS_TYPE":0,"CLASSIFICATION_TYPE":"U","NORAD_CAT_ID":57069,"ELEMENT_SET_NO":999,"REV_AT_EPOCH":578,"BSTAR":6.8446889e-5,"MEAN_MOTION_DOT":1.135e-5,"MEAN_MOTION_DDOT":0}]
